{"type": "FeatureCollection", "features": [ {"type": "Feature", "properties": {"norad_id": 35744, "name": "IRIDIUM 33 DEB", "group": "iridium-33-debris", "lat": 63.18950137544507, "lon": -24.776668033448324, "alt_km": 664.0192484834379, "timestamp": "2025-12-07T05:38:10.289201+00:00", "meta": {"OBJECT_NAME": "IRIDIUM 33 DEB", "OBJECT_ID": "1997-051RX", "EPOCH": "2025-12-06T06:29:21.230304", "MEAN_MOTION": 14.70859425, "ECCENTRICITY": 0.00195136, "INCLINATION": 86.3283, "RA_OF_ASC_NODE": 328.359, "ARG_OF_PERICENTER": 216.4074, "MEAN_ANOMALY": 143.5816, "EPHEMERIS_TYPE": 0, "CLASSIFICATION_TYPE": "U", "NORAD_CAT_ID": 35744, "ELEMENT_SET_NO": 999, "REV_AT_EPOCH": 87236, "BSTAR": 0.0021482405, "MEAN_MOTION_DOT": 0.00013207, "MEAN_MOTION_DDOT": 0}, "tle": {"line1": "1 35744U 97051RX  25340.27038461  .00013207  00000+0  21482-2 0  9991", "line2": "2 35744  86.3283 328.3590 0019513 216.4074 143.5816 14.70859425872367"}}, "geometry": {"type": "Point", "coordinates": [-24.776668033448324, 63.18950137544507]}}, {"type": "Feature", "properties": {"norad_id": 35797, "name": "IRIDIUM 33 DEB", "group": "iridium-33-debris", "lat": -79.39684831317918, "lon": -47.51925981719626, "alt_km": 632.1189748024963, "timestamp": "2025-12-07T05:38:10.289211+00:00", "meta": {"OBJECT_NAME": "IRIDIUM 33 DEB", "OBJECT_ID": "1997-051SF", "EPOCH": "2025-12-06T07:19:06.224160", "MEAN_MOTION": 14.82493357, "ECCENTRICITY": 0.00123708, "INCLINATION": 86.3354, "RA_OF_ASC_NODE": 332.9283, "ARG_OF_PERICENTER": 170.2941, "MEAN_ANOMALY": 189.8523, "EPHEMERIS_TYPE": 0, "CLASSIFICATION_TYPE": "U", "NORAD_CAT_ID": 35797, "ELEMENT_SET_NO": 999, "REV_AT_EPOCH": 87245, "BSTAR": 0.0032096309, "MEAN_MOTION_DOT": 0.00025886, "MEAN_MOTION_DDOT": 0}, "tle": {"line1": "1 35797U 97051SF  25340.30493315  .00025886  00000+0  32096-2 0  9995", "line2": "2 35797  86.3354 332.9283 0012370 170.2941 189.8523 14.82493357872457"}}, "geometry": {"type": "Point", "coordinates": [-47.51925981719626, -79.39684831317918]}}, {"type": "Feature", "properties": {"norad_id": 35806, "name": "IRIDIUM 33 DEB", "group": "iridium-33-debris", "lat": 6.866970836214186, "lon": 23.494141178829615, "alt_km": 703.0592228868609, "timestamp": "2025-12-07T05:38:10.289221+00:00", "meta": {"OBJECT_NAME": "IRIDIUM 33 DEB", "OBJECT_ID": "1997-051SQ", "EPOCH": "2025-12-06T09:49:43.789440", "MEAN_MOTION": 14.5725267, "ECCENTRICITY": 0.0016158, "INCLINATION": 86.344, "RA_OF_ASC_NODE": 23.4162, "ARG_OF_PERICENTER": 94.3917, "MEAN_ANOMALY": 265.9138, "EPHEMERIS_TYPE": 0, "CLASSIFICATION_TYPE": "U", "NORAD_CAT_ID": 35806, "ELEMENT_SET_NO": 999, "REV_AT_EPOCH": 86232, "BSTAR": 0.0020153904, "MEAN_MOTION_DOT": 9.149e-05, "MEAN_MOTION_DDOT": 0}, "tle": {"line1": "1 35806U 97051SQ  25340.40953460  .00009149  00000+0  20154-2 0  9995", "line2": "2 35806  86.3440  23.4162 0016158  94.3917 265.9138 14.57252670862325"}}, "geometry": {"type": "Point", "coordinates": [23.494141178829615, 6.866970836214186]}}, {"type": "Feature", "properties": {"norad_id": 35809, "name": "IRIDIUM 33 DEB", "group": "iridium-33-debris", "lat": 9.41142889712817, "lon": -21.53524076416337, "alt_km": 646.6872889215538, "timestamp": "2025-12-07T05:38:10.289231+00:00", "meta": {"OBJECT_NAME": "IRIDIUM 33 DEB", "OBJECT_ID": "1997-051ST", "EPOCH": "2025-12-06T06:48:24.450912", "MEAN_MOTION": 14.75488502, "ECCENTRICITY": 0.00096585, "INCLINATION": 86.3276, "RA_OF_ASC_NODE": 338.2877, "ARG_OF_PERICENTER": 270.8385, "MEAN_ANOMALY": 89.1727, "EPHEMERIS_TYPE": 0, "CLASSIFICATION_TYPE": "U", "NORAD_CAT_ID": 35809, "ELEMENT_SET_NO": 999, "REV_AT_EPOCH": 86712, "BSTAR": 0.0029776157, "MEAN_MOTION_DOT": 0.00020329, "MEAN_MOTION_DDOT": 0}, "tle": {"line1": "1 35809U 97051ST  25340.28361633  .00020329  00000+0  29776-2 0  9991", "line2": "2 35809  86.3276 338.2877 0009658 270.8385  89.1727 14.75488502867120"}}, "geometry": {"type": "Point", "coordinates": [-21.53524076416337, 9.41142889712817]}}, {"type": "Feature", "properties": {"norad_id": 35846, "name": "IRIDIUM 33 DEB", "group": "iridium-33-debris", "lat": 73.79342693023014, "lon": 73.78852891573116, "alt_km": 746.4504791978643, "timestamp": "2025-12-07T05:38:10.289241+00:00", "meta": {"OBJECT_NAME": "IRIDIUM 33 DEB", "OBJECT_ID": "1997-051SW", "EPOCH": "2025-11-15T14:04:07.017312", "MEAN_MOTION": 14.42992821, "ECCENTRICITY": 0.00163082, "INCLINATION": 86.3745, "RA_OF_ASC_NODE": 70.4244, "ARG_OF_PERICENTER": 263.1259, "MEAN_ANOMALY": 96.8086, "EPHEMERIS_TYPE": 0, "CLASSIFICATION_TYPE": "U", "NORAD_CAT_ID": 35846, "ELEMENT_SET_NO": 999, "REV_AT_EPOCH": 70937, "BSTAR": 0.0011049939, "MEAN_MOTION_DOT": 3.722e-05, "MEAN_MOTION_DDOT": 0}, "tle": {"line1": "1 35846U 97051SW  25319.58619233  .00003722  00000+0  11050-2 0  9997", "line2": "2 35846  86.3745  70.4244 0016308 263.1259  96.8086 14.42992821709373"}}, "geometry": {"type": "Point", "coordinates": [73.78852891573116, 73.79342693023014]}}, {"type": "Feature", "properties": {"norad_id": 35848, "name": "IRIDIUM 33 DEB", "group": "iridium-33-debris", "lat": -82.53972090293742, "lon": -132.59508983991753, "alt_km": 638.3620735881905, "timestamp": "2025-12-07T05:38:10.289250+00:00", "meta": {"OBJECT_NAME": "IRIDIUM 33 DEB", "OBJECT_ID": "1997-051SY", "EPOCH": "2025-12-01T10:21:45.439488", "MEAN_MOTION": 14.7824162, "ECCENTRICITY": 0.00067103, "INCLINATION": 86.3925, "RA_OF_ASC_NODE": 21.2088, "ARG_OF_PERICENTER": 240.9704, "MEAN_ANOMALY": 119.0844, "EPHEMERIS_TYPE": 0, "CLASSIFICATION_TYPE": "U", "NORAD_CAT_ID": 35848, "ELEMENT_SET_NO": 999, "REV_AT_EPOCH": 66523, "BSTAR": 0.0018930249, "MEAN_MOTION_DOT": 0.00013775, "MEAN_MOTION_DDOT": 0}, "tle": {"line1": "1 35848U 97051SY  25335.43177592  .00013775  00000+0  18930-2 0  9991", "line2": "2 35848  86.3925  21.2088 0006710 240.9704 119.0844 14.78241620665238"}}, "geometry": {"type": "Point", "coordinates": [-132.59508983991753, -82.53972090293742]}}, {"type": "Feature", "properties": {"norad_id": 35850, "name": "IRIDIUM 33 DEB", "group": "iridium-33-debris", "lat": -45.539168756771424, "lon": 170.48083063158538, "alt_km": 634.8970268504818, "timestamp": "2025-12-07T05:38:10.289260+00:00", "meta": {"OBJECT_NAME": "IRIDIUM 33 DEB", "OBJECT_ID": "1997-051TA", "EPOCH": "2025-12-06T07:30:15.621984", "MEAN_MOTION": 14.78601393, "ECCENTRICITY": 0.00083892, "INCLINATION": 86.3487, "RA_OF_ASC_NODE": 347.1693, "ARG_OF_PERICENTER": 210.267, "MEAN_ANOMALY": 149.8067, "EPHEMERIS_TYPE": 0, "CLASSIFICATION_TYPE": "U", "NORAD_CAT_ID": 35850, "ELEMENT_SET_NO": 999, "REV_AT_EPOCH": 71262, "BSTAR": 0.0028291764, "MEAN_MOTION_DOT": 0.00020775, "MEAN_MOTION_DDOT": 0}, "tle": {"line1": "1 35850U 97051TA  25340.31268081  .00020775  00000+0  28292-2 0  9991", "line2": "2 35850  86.3487 347.1693 0008389 210.2670 149.8067 14.78601393712623"}}, "geometry": {"type": "Point", "coordinates": [170.48083063158538, -45.539168756771424]}}, {"type": "Feature", "properties": {"norad_id": 35915, "name": "IRIDIUM 33 DEB", "group": "iridium-33-debris", "lat": 52.50992309518725, "lon": 160.6913537168594, "alt_km": 622.1394309525249, "timestamp": "2025-12-07T05:38:10.289271+00:00", "meta": {"OBJECT_NAME": "IRIDIUM 33 DEB", "OBJECT_ID": "1997-051TY", "EPOCH": "2025-12-03T18:19:42.417696", "MEAN_MOTION": 14.80347774, "ECCENTRICITY": 0.00098177, "INCLINATION": 86.3435, "RA_OF_ASC_NODE": 347.0587, "ARG_OF_PERICENTER": 222.269, "MEAN_ANOMALY": 137.7775, "EPHEMERIS_TYPE": 0, "CLASSIFICATION_TYPE": "U", "NORAD_CAT_ID": 35915, "ELEMENT_SET_NO": 999, "REV_AT_EPOCH": 7953, "BSTAR": 0.002591589, "MEAN_MOTION_DOT": 0.00019836, "MEAN_MOTION_DDOT": 0}, "tle": {"line1": "1 35915U 97051TY  25337.76368539  .00019836  00000+0  25916-2 0  9993", "line2": "2 35915  86.3435 347.0587 0009817 222.2690 137.7775 14.80347774 79532"}}, "geometry": {"type": "Point", "coordinates": [160.6913537168594, 52.50992309518725]}}, {"type": "Feature", "properties": {"norad_id": 35918, "name": "IRIDIUM 33 DEB", "group": "iridium-33-debris", "lat": 35.63743199275492, "lon": -104.40945587579115, "alt_km": 705.9187986055258, "timestamp": "2025-12-07T05:38:10.289281+00:00", "meta": {"OBJECT_NAME": "IRIDIUM 33 DEB", "OBJECT_ID": "1997-051UB", "EPOCH": "2025-11-30T01:41:55.281408", "MEAN_MOTION": 14.51050885, "ECCENTRICITY": 0.00264066, "INCLINATION": 86.4001, "RA_OF_ASC_NODE": 81.2516, "ARG_OF_PERICENTER": 211.3482, "MEAN_ANOMALY": 332.4953, "EPHEMERIS_TYPE": 0, "CLASSIFICATION_TYPE": "U", "NORAD_CAT_ID": 35918, "ELEMENT_SET_NO": 999, "REV_AT_EPOCH": 85023, "BSTAR": 0.0014523463, "MEAN_MOTION_DOT": 5.795e-05, "MEAN_MOTION_DDOT": 0}, "tle": {"line1": "1 35918U 97051UB  25334.07077872  .00005795  00000+0  14523-2 0  9995", "line2": "2 35918  86.4001  81.2516 0026406 211.3482 332.4953 14.51050885850233"}}, "geometry": {"type": "Point", "coordinates": [-104.40945587579115, 35.63743199275492]}}, {"type": "Feature", "properties": {"norad_id": 35929, "name": "IRIDIUM 33 DEB", "group": "iridium-33-debris", "lat": -33.42898998125856, "lon": -47.17908719308625, "alt_km": 565.8395557644926, "timestamp": "2025-12-07T05:38:10.289291+00:00", "meta": {"OBJECT_NAME": "IRIDIUM 33 DEB", "OBJECT_ID": "1997-051UN", "EPOCH": "2025-12-02T05:49:26.497920", "MEAN_MOTION": 15.01302222, "ECCENTRICITY": 0.0019551, "INCLINATION": 86.3366, "RA_OF_ASC_NODE": 317.6054, "ARG_OF_PERICENTER": 65.7136, "MEAN_ANOMALY": 294.6136, "EPHEMERIS_TYPE": 0, "CLASSIFICATION_TYPE": "U", "NORAD_CAT_ID": 35929, "ELEMENT_SET_NO": 999, "REV_AT_EPOCH": 87622, "BSTAR": 0.0029859, "MEAN_MOTION_DOT": 0.00038744, "MEAN_MOTION_DDOT": 0}, "tle": {"line1": "1 35929U 97051UN  25336.24266780  .00038744  00000+0  29859-2 0  9994", "line2": "2 35929  86.3366 317.6054 0019551  65.7136 294.6136 15.01302222876221"}}, "geometry": {"type": "Point", "coordinates": [-47.17908719308625, -33.42898998125856]}}]}